IRIDIUM 39              
1 25042U 97069D   25349.91418239  .00000737  00000+0  18664-3 0  9998
2 25042  86.3918 133.2700 0019480  62.7795 297.5391 14.49510306475289
IRIDIUM 38              
1 25043U 97069E   25349.89972473  .00000493  00000+0  15561-3 0  9993
2 25043  86.3970 156.7788 0001618 153.6248 206.5032 14.38316871472076
IRIDIUM 42              
1 25077U 97077A   25349.92082026  .00000454  00000+0  14800-3 0  9991
2 25077  86.3978 163.1612 0001389 106.0336 254.1015 14.36534796467287
IRIDIUM 44              
1 25078U 97077B   25349.94014438  .00000389  00000+0  11614-3 0  9993
2 25078  86.3967 144.6050 0003410 119.5234 240.6305 14.40434680469863
IRIDIUM 45              
1 25104U 97082A   25349.94280433  .00027669  00000+0  77960-3 0  9995
2 25104  86.3534 319.0998 0098466   9.0847 351.2152 15.31467872479769
IRIDIUM 24              
1 25105U 97082B   25349.95477309  .00000484  00000+0  14050-3 0  9994
2 25105  86.3909   3.1880 0010938 186.1914 173.9153 14.42330774469419
IRIDIUM 51              
1 25262U 98018A   25349.91169602  .00084637  00000+0  88543-3 0  9998
2 25262  86.3723 324.6146 0046583 260.4667  99.1334 15.62763302475146
IRIDIUM 57              
1 25273U 98019B   25349.76834289  .00000341  00000+0  11057-3 0  9990
2 25273  86.3956  69.1197 0002110  98.1407 262.0030 14.36053738450848
